[
    {
        "Altitude(m)": 706805.2283865525,
        "Argument of Periapsis(deg)": 0.007973084830638947,
        "Eccentricity": 0.0,
        "Inclination(deg)": 45.0,
        "Latitude(deg)": 42.90024969597691,
        "Longitude(deg)": 71.90899800270805,
        "Mean Anomaly(deg)": 106.25505165323656,
        "RAAN(deg)": 59.99247364097925,
        "Satellite Name": "Constellation 1 270",
        "Satellite Number": 270,
        "Semi-Major Axis(m)": 7083131.272910544,
        "Time(s)": 133
    },
    {
        "Altitude(m)": 706801.5803767117,
        "Argument of Periapsis(deg)": 0.008033032836884352,
        "Eccentricity": 0.0,
        "Inclination(deg)": 45.0,
        "Latitude(deg)": 42.88379665918864,
        "Longitude(deg)": 71.98449521412763,
        "Mean Anomaly(deg)": 106.31575279348645,
        "RAAN(deg)": 59.992417051813675,
        "Satellite Name": "Constellation 1 270",
        "Satellite Number": 270,
        "Semi-Major Axis(m)": 7083131.272910544,
        "Time(s)": 134
    },
    {
        "Altitude(m)": 706797.9207271581,
        "Argument of Periapsis(deg)": 0.008092980843129758,
        "Eccentricity": 0.0,
        "Inclination(deg)": 45.0,
        "Latitude(deg)": 42.86728827468586,
        "Longitude(deg)": 72.05995008786624,
        "Mean Anomaly(deg)": 106.37645393373637,
        "RAAN(deg)": 59.992360462648115,
        "Satellite Name": "Constellation 1 270",
        "Satellite Number": 270,
        "Semi-Major Axis(m)": 7083131.272910544,
        "Time(s)": 135
    },
    {
        "Altitude(m)": 706794.2494596347,
        "Argument of Periapsis(deg)": 0.008152928849375162,
        "Eccentricity": 0.0,
        "Inclination(deg)": 45.0,
        "Latitude(deg)": 42.85072460327917,
        "Longitude(deg)": 72.13536252905568,
        "Mean Anomaly(deg)": 106.43715507398628,
        "RAAN(deg)": 59.99230387348254,
        "Satellite Name": "Constellation 1 270",
        "Satellite Number": 270,
        "Semi-Major Axis(m)": 7083131.272910544,
        "Time(s)": 136
    },
    {
        "Altitude(m)": 706790.5665959573,
        "Argument of Periapsis(deg)": 0.008212876855620568,
        "Eccentricity": 0.0,
        "Inclination(deg)": 45.0,
        "Latitude(deg)": 42.83410570589942,
        "Longitude(deg)": 72.21073244339324,
        "Mean Anomaly(deg)": 106.49785621423618,
        "RAAN(deg)": 59.99224728431697,
        "Satellite Name": "Constellation 1 270",
        "Satellite Number": 270,
        "Semi-Major Axis(m)": 7083131.272910544,
        "Time(s)": 137
    },
    {
        "Altitude(m)": 706786.8721580161,
        "Argument of Periapsis(deg)": 0.008272824861865974,
        "Eccentricity": 0.0,
        "Inclination(deg)": 45.0,
        "Latitude(deg)": 42.81743164359714,
        "Longitude(deg)": 72.28605973714203,
        "Mean Anomaly(deg)": 106.55855735448607,
        "RAAN(deg)": 59.99219069515141,
        "Satellite Name": "Constellation 1 270",
        "Satellite Number": 270,
        "Semi-Major Axis(m)": 7083131.272910544,
        "Time(s)": 138
    },
    {
        "Altitude(m)": 706783.1661677666,
        "Argument of Periapsis(deg)": 0.00833277286811138,
        "Eccentricity": 0.0,
        "Inclination(deg)": 45.0,
        "Latitude(deg)": 42.80070247754134,
        "Longitude(deg)": 72.36134431713074,
        "Mean Anomaly(deg)": 106.61925849473596,
        "RAAN(deg)": 59.99213410598584,
        "Satellite Name": "Constellation 1 270",
        "Satellite Number": 270,
        "Semi-Major Axis(m)": 7083131.272910544,
        "Time(s)": 139
    },
    {
        "Altitude(m)": 706779.4486472406,
        "Argument of Periapsis(deg)": 0.008392720874356788,
        "Eccentricity": 0.0,
        "Inclination(deg)": 45.0,
        "Latitude(deg)": 42.78391826901873,
        "Longitude(deg)": 72.43658609075372,
        "Mean Anomaly(deg)": 106.67995963498589,
        "RAAN(deg)": 59.99207751682027,
        "Satellite Name": "Constellation 1 270",
        "Satellite Number": 270,
        "Semi-Major Axis(m)": 7083131.272910544,
        "Time(s)": 140
    },
    {
        "Altitude(m)": 706775.7196185376,
        "Argument of Periapsis(deg)": 0.008452668880602192,
        "Eccentricity": 0.0,
        "Inclination(deg)": 45.0,
        "Latitude(deg)": 42.76707907943276,
        "Longitude(deg)": 72.51178479787353,
        "Mean Anomaly(deg)": 106.74066077523577,
        "RAAN(deg)": 59.99202092765469,
        "Satellite Name": "Constellation 1 270",
        "Satellite Number": 270,
        "Semi-Major Axis(m)": 7083131.272910544,
        "Time(s)": 141
    },
    {
        "Altitude(m)": 706771.9791038305,
        "Argument of Periapsis(deg)": 0.008512616886847598,
        "Eccentricity": 0.0,
        "Inclination(deg)": 45.0,
        "Latitude(deg)": 42.75018497030302,
        "Longitude(deg)": 72.58694068321029,
        "Mean Anomaly(deg)": 106.80136191548566,
        "RAAN(deg)": 59.99196433848912,
        "Satellite Name": "Constellation 1 270",
        "Satellite Number": 270,
        "Semi-Major Axis(m)": 7083131.272910544,
        "Time(s)": 142
    },
    {
        "Altitude(m)": 706768.2271253599,
        "Argument of Periapsis(deg)": 0.008572564893093004,
        "Eccentricity": 0.0,
        "Inclination(deg)": 45.0,
        "Latitude(deg)": 42.73323600326376,
        "Longitude(deg)": 72.66205348775759,
        "Mean Anomaly(deg)": 106.86206305573555,
        "RAAN(deg)": 59.99190774932356,
        "Satellite Name": "Constellation 1 270",
        "Satellite Number": 270,
        "Semi-Major Axis(m)": 7083131.272910544,
        "Time(s)": 143
    },
    {
        "Altitude(m)": 706764.4637054395,
        "Argument of Periapsis(deg)": 0.008632512899338408,
        "Eccentricity": 0.0,
        "Inclination(deg)": 45.0,
        "Latitude(deg)": 42.716232240063384,
        "Longitude(deg)": 72.73712312117179,
        "Mean Anomaly(deg)": 106.92276419598547,
        "RAAN(deg)": 59.99185116015799,
        "Satellite Name": "Constellation 1 270",
        "Satellite Number": 270,
        "Semi-Major Axis(m)": 7083131.272910544,
        "Time(s)": 144
    },
    {
        "Altitude(m)": 706760.6888664534,
        "Argument of Periapsis(deg)": 0.008692460905583814,
        "Eccentricity": 0.0,
        "Inclination(deg)": 45.0,
        "Latitude(deg)": 42.69917374256349,
        "Longitude(deg)": 72.81214949367454,
        "Mean Anomaly(deg)": 106.98346533623537,
        "RAAN(deg)": 59.99179457099242,
        "Satellite Name": "Constellation 1 270",
        "Satellite Number": 270,
        "Semi-Major Axis(m)": 7083131.272910544,
        "Time(s)": 145
    },
    {
        "Altitude(m)": 706756.9026308552,
        "Argument of Periapsis(deg)": 0.00875240891182922,
        "Eccentricity": 0.0,
        "Inclination(deg)": 45.0,
        "Latitude(deg)": 42.68206057273792,
        "Longitude(deg)": 72.88713251605249,
        "Mean Anomaly(deg)": 107.04416647648524,
        "RAAN(deg)": 59.991737981826844,
        "Satellite Name": "Constellation 1 270",
        "Satellite Number": 270,
        "Semi-Major Axis(m)": 7083131.272910544,
        "Time(s)": 146
    },
    {
        "Altitude(m)": 706753.1050211688,
        "Argument of Periapsis(deg)": 0.008812356918074627,
        "Eccentricity": 0.0,
        "Inclination(deg)": 45.0,
        "Latitude(deg)": 42.66489279267178,
        "Longitude(deg)": 72.96207209965772,
        "Mean Anomaly(deg)": 107.10486761673518,
        "RAAN(deg)": 59.991681392661285,
        "Satellite Name": "Constellation 1 270",
        "Satellite Number": 270,
        "Semi-Major Axis(m)": 7083131.272910544,
        "Time(s)": 147
    },
    {
        "Altitude(m)": 706749.2960599918,
        "Argument of Periapsis(deg)": 0.008872304924320031,
        "Eccentricity": 0.0,
        "Inclination(deg)": 45.0,
        "Latitude(deg)": 42.64767046456064,
        "Longitude(deg)": 73.03696798830946,
        "Mean Anomaly(deg)": 107.16556875698505,
        "RAAN(deg)": 59.99162480349571,
        "Satellite Name": "Constellation 1 270",
        "Satellite Number": 270,
        "Semi-Major Axis(m)": 7083131.272910544,
        "Time(s)": 148
    },
    {
        "Altitude(m)": 706745.47576999,
        "Argument of Periapsis(deg)": 0.008932252930565437,
        "Eccentricity": 0.0,
        "Inclination(deg)": 45.0,
        "Latitude(deg)": 42.63039365070988,
        "Longitude(deg)": 73.11182043068409,
        "Mean Anomaly(deg)": 107.22626989723499,
        "RAAN(deg)": 59.99156821433014,
        "Satellite Name": "Constellation 1 270",
        "Satellite Number": 270,
        "Semi-Major Axis(m)": 7083131.272910544,
        "Time(s)": 149
    },
    {
        "Altitude(m)": 706741.6441738935,
        "Argument of Periapsis(deg)": 0.008992200936810843,
        "Eccentricity": 0.0,
        "Inclination(deg)": 45.0,
        "Latitude(deg)": 42.613062413533214,
        "Longitude(deg)": 73.18662917173027,
        "Mean Anomaly(deg)": 107.28697103748482,
        "RAAN(deg)": 59.99151162516456,
        "Satellite Name": "Constellation 1 270",
        "Satellite Number": 270,
        "Semi-Major Axis(m)": 7083131.272910544,
        "Time(s)": 150
    },
    {
        "Altitude(m)": 706737.8012945116,
        "Argument of Periapsis(deg)": 0.009052148943056249,
        "Eccentricity": 0.0,
        "Inclination(deg)": 45.0,
        "Latitude(deg)": 42.5956768155522,
        "Longitude(deg)": 73.26139412505876,
        "Mean Anomaly(deg)": 107.34767217773472,
        "RAAN(deg)": 59.99145503599901,
        "Satellite Name": "Constellation 1 270",
        "Satellite Number": 270,
        "Semi-Major Axis(m)": 7083131.272910544,
        "Time(s)": 151
    }
]